{
    "week": 294,
    "satellites": [
        {
            "Name": "GSAT0101 (GALILEO-PFM)",
            "Line1": "1 37846U 11060A   24327.51457137 -.00000093  00000+0  00000+0 0  9998",
            "Line2": "2 37846  57.1206 357.2516 0002160 305.1216  54.9071  1.70475870 81371",
            "SatelliteNumber": "37846",
            "Classification": "U",
            "LaunchYear": "11",
            "LaunchNumber": "060",
            "PieceOfLaunch": "A",
            "EpochYear": "24",
            "EpochDay": 327.51457137,
            "FirstDerivativeMeanMotion": -9.3e-07,
            "SecondDerivativeMeanMotion": "00000+0",
            "BSTAR": "00000+0",
            "SetNumber": "999",
            "Inclination": 57.1206,
            "RAAN": 357.2516,
            "Eccentricity": 0.000216,
            "ArgumentOfPerigee": 305.1216,
            "MeanAnomaly": 54.9071,
            "MeanMotion": 1.7047587,
            "RevolutionNumber": "8137"
        },
        {
            "Name": "GSAT0102 (GALILEO-FM2)",
            "Line1": "1 37847U 11060B   24329.28910988 -.00000087  00000+0  00000+0 0  9996",
            "Line2": "2 37847  57.1213 357.2037 0004205 301.1182 113.3752  1.70475428 81418",
            "SatelliteNumber": "37847",
            "Classification": "U",
            "LaunchYear": "11",
            "LaunchNumber": "060",
            "PieceOfLaunch": "B",
            "EpochYear": "24",
            "EpochDay": 329.28910988,
            "FirstDerivativeMeanMotion": -8.7e-07,
            "SecondDerivativeMeanMotion": "00000+0",
            "BSTAR": "00000+0",
            "SetNumber": "999",
            "Inclination": 57.1213,
            "RAAN": 357.2037,
            "Eccentricity": 0.0004205,
            "ArgumentOfPerigee": 301.1182,
            "MeanAnomaly": 113.3752,
            "MeanMotion": 1.70475428,
            "RevolutionNumber": "8141"
        },
        {
            "Name": "GSAT0103 (GALILEO-FM3)",
            "Line1": "1 38857U 12055A   24327.55396324  .00000050  00000+0  00000+0 0  9992",
            "Line2": "2 38857  55.4962 117.2516 0002275 247.0065 112.9520  1.70473597 75260",
            "SatelliteNumber": "38857",
            "Classification": "U",
            "LaunchYear": "12",
            "LaunchNumber": "055",
            "PieceOfLaunch": "A",
            "EpochYear": "24",
            "EpochDay": 327.55396324,
            "FirstDerivativeMeanMotion": 5e-07,
            "SecondDerivativeMeanMotion": "00000+0",
            "BSTAR": "00000+0",
            "SetNumber": "999",
            "Inclination": 55.4962,
            "RAAN": 117.2516,
            "Eccentricity": 0.0002275,
            "ArgumentOfPerigee": 247.0065,
            "MeanAnomaly": 112.952,
            "MeanMotion": 1.70473597,
            "RevolutionNumber": "7526"
        },
        {
            "Name": "GSAT0201 (GALILEO 5)",
            "Line1": "1 40128U 14050A   24328.08978053 -.00000082  00000+0  00000+0 0  9993",
            "Line2": "2 40128  49.4948 296.6643 1615252 157.4256 210.5871  1.85519556 67724",
            "SatelliteNumber": "40128",
            "Classification": "U",
            "LaunchYear": "14",
            "LaunchNumber": "050",
            "PieceOfLaunch": "A",
            "EpochYear": "24",
            "EpochDay": 328.08978053,
            "FirstDerivativeMeanMotion": -8.2e-07,
            "SecondDerivativeMeanMotion": "00000+0",
            "BSTAR": "00000+0",
            "SetNumber": "999",
            "Inclination": 49.4948,
            "RAAN": 296.6643,
            "Eccentricity": 0.1615252,
            "ArgumentOfPerigee": 157.4256,
            "MeanAnomaly": 210.5871,
            "MeanMotion": 1.85519556,
            "RevolutionNumber": "6772"
        },
        {
            "Name": "GSAT0202 (GALILEO 6)",
            "Line1": "1 40129U 14050B   24328.34747109 -.00000083  00000+0  00000+0 0  9990",
            "Line2": "2 40129  49.5108 295.7332 1614741 158.2322 209.5122  1.85520434 69898",
            "SatelliteNumber": "40129",
            "Classification": "U",
            "LaunchYear": "14",
            "LaunchNumber": "050",
            "PieceOfLaunch": "B",
            "EpochYear": "24",
            "EpochDay": 328.34747109,
            "FirstDerivativeMeanMotion": -8.3e-07,
            "SecondDerivativeMeanMotion": "00000+0",
            "BSTAR": "00000+0",
            "SetNumber": "999",
            "Inclination": 49.5108,
            "RAAN": 295.7332,
            "Eccentricity": 0.1614741,
            "ArgumentOfPerigee": 158.2322,
            "MeanAnomaly": 209.5122,
            "MeanMotion": 1.85520434,
            "RevolutionNumber": "6989"
        },
        {
            "Name": "GSAT0203 (GALILEO 7)",
            "Line1": "1 40544U 15017A   24327.87999203 -.00000092  00000+0  00000+0 0  9996",
            "Line2": "2 40544  56.9153 357.1541 0006058 260.7163  99.2642  1.70476193 60127",
            "SatelliteNumber": "40544",
            "Classification": "U",
            "LaunchYear": "15",
            "LaunchNumber": "017",
            "PieceOfLaunch": "A",
            "EpochYear": "24",
            "EpochDay": 327.87999203,
            "FirstDerivativeMeanMotion": -9.2e-07,
            "SecondDerivativeMeanMotion": "00000+0",
            "BSTAR": "00000+0",
            "SetNumber": "999",
            "Inclination": 56.9153,
            "RAAN": 357.1541,
            "Eccentricity": 0.0006058,
            "ArgumentOfPerigee": 260.7163,
            "MeanAnomaly": 99.2642,
            "MeanMotion": 1.70476193,
            "RevolutionNumber": "6012"
        },
        {
            "Name": "GSAT0204 (GALILEO 8)",
            "Line1": "1 40545U 15017B   24329.30780156 -.00000088  00000+0  00000+0 0  9997",
            "Line2": "2 40545  56.9217 357.1313 0005848 251.3729 108.6145  1.70475846 60156",
            "SatelliteNumber": "40545",
            "Classification": "U",
            "LaunchYear": "15",
            "LaunchNumber": "017",
            "PieceOfLaunch": "B",
            "EpochYear": "24",
            "EpochDay": 329.30780156,
            "FirstDerivativeMeanMotion": -8.8e-07,
            "SecondDerivativeMeanMotion": "00000+0",
            "BSTAR": "00000+0",
            "SetNumber": "999",
            "Inclination": 56.9217,
            "RAAN": 357.1313,
            "Eccentricity": 0.0005848,
            "ArgumentOfPerigee": 251.3729,
            "MeanAnomaly": 108.6145,
            "MeanMotion": 1.70475846,
            "RevolutionNumber": "6015"
        },
        {
            "Name": "GSAT0205 (GALILEO 9)",
            "Line1": "1 40889U 15045A   24324.38356794 -.00000013  00000+0  00000+0 0  9997",
            "Line2": "2 40889  55.1506 237.4841 0005263  30.4286 329.6488  1.70472877 57219",
            "SatelliteNumber": "40889",
            "Classification": "U",
            "LaunchYear": "15",
            "LaunchNumber": "045",
            "PieceOfLaunch": "A",
            "EpochYear": "24",
            "EpochDay": 324.38356794,
            "FirstDerivativeMeanMotion": -1.3e-07,
            "SecondDerivativeMeanMotion": "00000+0",
            "BSTAR": "00000+0",
            "SetNumber": "999",
            "Inclination": 55.1506,
            "RAAN": 237.4841,
            "Eccentricity": 0.0005263,
            "ArgumentOfPerigee": 30.4286,
            "MeanAnomaly": 329.6488,
            "MeanMotion": 1.70472877,
            "RevolutionNumber": "5721"
        },
        {
            "Name": "GSAT0206 (GALILEO 10)",
            "Line1": "1 40890U 15045B   24326.36392849 -.00000024  00000+0  00000+0 0  9992",
            "Line2": "2 40890  55.1487 237.4249 0003164   7.9867 352.0637  1.70472981 57271",
            "SatelliteNumber": "40890",
            "Classification": "U",
            "LaunchYear": "15",
            "LaunchNumber": "045",
            "PieceOfLaunch": "B",
            "EpochYear": "24",
            "EpochDay": 326.36392849,
            "FirstDerivativeMeanMotion": -2.4e-07,
            "SecondDerivativeMeanMotion": "00000+0",
            "BSTAR": "00000+0",
            "SetNumber": "999",
            "Inclination": 55.1487,
            "RAAN": 237.4249,
            "Eccentricity": 0.0003164,
            "ArgumentOfPerigee": 7.9867,
            "MeanAnomaly": 352.0637,
            "MeanMotion": 1.70472981,
            "RevolutionNumber": "5727"
        },
        {
            "Name": "GSAT0209 (GALILEO 12)",
            "Line1": "1 41174U 15079A   24328.87956207  .00000053  00000+0  00000+0 0  9998",
            "Line2": "2 41174  55.5053 116.9259 0001879 349.5378  10.4428  1.70474507 55058",
            "SatelliteNumber": "41174",
            "Classification": "U",
            "LaunchYear": "15",
            "LaunchNumber": "079",
            "PieceOfLaunch": "A",
            "EpochYear": "24",
            "EpochDay": 328.87956207,
            "FirstDerivativeMeanMotion": 5.3e-07,
            "SecondDerivativeMeanMotion": "00000+0",
            "BSTAR": "00000+0",
            "SetNumber": "999",
            "Inclination": 55.5053,
            "RAAN": 116.9259,
            "Eccentricity": 0.0001879,
            "ArgumentOfPerigee": 349.5378,
            "MeanAnomaly": 10.4428,
            "MeanMotion": 1.70474507,
            "RevolutionNumber": "5505"
        }
    ]
}